STARLINK-3589           
1 51997U 22025AT  25134.73091804  .00000787  00000+0  67519-4 0  9992
2 51997  53.2176 281.1987 0001296  82.3794 277.7345 15.08848258175775
STARLINK-3618           
1 51998U 22025AU  25135.41908741 -.00000148  00000+0  87740-5 0  9997
2 51998  53.2179 278.1074 0001300  92.8534 267.2607 15.08833267175898
STARLINK-3667           
1 51999U 22025AV  25135.37860678  .00001194  00000+0  93126-4 0  9994
2 51999  53.2183 278.2804 0001369  89.7303 270.3846 15.08838363175881
STARLINK-3653           
1 52000U 22025AW  25134.67571780  .00002663  00000+0  18524-3 0  9993
2 52000  53.2179 281.3541 0001189  89.6645 270.4483 15.08855339177311
STARLINK-3659           
1 52001U 22025AX  25135.41636377  .00000252  00000+0  33933-4 0  9995
2 52001  53.2180 278.1291 0001079  89.7546 270.3569 15.08833830175896
STARLINK-3668           
1 52002U 22025AY  25135.41540941 -.00000358  00000+0 -44045-5 0  9993
2 52002  53.2175 278.1616 0001315  86.8835 273.2307 15.08835820175897
STARLINK-3537           
1 52088U 22029A   25135.85905399  .00010248  00000+0  29984-3 0  9991
2 52088  53.2100 219.1571 0002242  27.5050 332.6072 15.35865627177478
STARLINK-3722           
1 52089U 22029B   25134.81648319  .00000008  00000+0  18624-4 0  9996
2 52089  53.2188 350.8129 0001455  93.1285 266.9874 15.08836725175532
STARLINK-3712           
1 52090U 22029C   25135.00415674  .00000854  00000+0  71749-4 0  9992
2 52090  53.2181 349.9702 0001362  89.0484 271.0665 15.08846003175563
STARLINK-3716           
1 52092U 22029E   25134.87536158 -.00000190  00000+0  61402-5 0  9999
2 52092  53.2183 350.5461 0001474 100.0782 260.0377 15.08840787175545
STARLINK-3673           
1 52093U 22029F   25134.99775829  .00000372  00000+0  41439-4 0  9991
2 52093  53.2177 350.0097 0001330  87.7771 272.3373 15.08844829175564
STARLINK-3714           
1 52094U 22029G   25134.86799971  .00000784  00000+0  67322-4 0  9998
2 52094  53.2179 350.5820 0001429  85.8414 274.2741 15.08845483175543
STARLINK-3701           
1 52095U 22029H   25134.98944959  .00013087  00000+0  83800-3 0  9998
2 52095  53.2189 350.0384 0001451  85.3298 274.7860 15.08875584175569
STARLINK-3717           
1 52096U 22029J   25134.83580393 -.00000873  00000+0 -36785-4 0  9993
2 52096  53.2196 340.7269 0001408  85.2896 274.8257 15.08844964175661
STARLINK-3665           
1 52098U 22029L   25135.19183854  .00000631  00000+0  57739-4 0  9998
2 52098  53.2185 349.1287 0001359  88.6596 271.4552 15.08846183175591
STARLINK-3702           
1 52100U 22029N   25134.98576093  .00001899  00000+0  13736-3 0  9994
2 52100  53.2184 350.0546 0001358  87.4237 272.6911 15.08837740175569
STARLINK-3703           
1 52101U 22029P   25134.86434724 -.00000668  00000+0 -23884-4 0  9997
2 52101  53.2186 350.7923 0001542 102.5779 257.5385 15.08844594175532
STARLINK-3709           
1 52102U 22029Q   25134.78892977  .00000038  00000+0  20469-4 0  9992
2 52102  53.2183 340.9342 0001426  94.3873 265.7282 15.08836206175662
STARLINK-3705           
1 52103U 22029R   25134.89468481  .00001823  00000+0  13254-3 0  9990
2 52103  53.2184 340.4629 0001317  94.4959 265.6183 15.08854994175676
STARLINK-3706           
1 52105U 22029T   25134.95452007 -.00000416  00000+0 -80588-5 0  9991
2 52105  53.2186 340.1955 0001353  95.8622 264.2524 15.08842115175688
STARLINK-3670           
1 52106U 22029U   25134.97472478  .00001782  00000+0  13008-3 0  9994
2 52106  53.2185 350.1036 0001245  91.7286 268.3849 15.08827073175557
STARLINK-3658           
1 52107U 22029V   25134.94988630 -.00000487  00000+0 -12516-4 0  9991
2 52107  53.2184 340.2159 0001389  90.3618 269.7533 15.08839039175680
STARLINK-3698           
1 52108U 22029W   25135.22220276 -.00001133  00000+0 -53141-4 0  9997
2 52108  53.2190 338.9913 0001306  83.2164 276.8976 15.08828985175729
STARLINK-3687           
1 52110U 22029Y   25134.88732554 -.00000877  00000+0 -37027-4 0  9997
2 52110  53.2185 340.4965 0001174  83.6386 276.4740 15.08842490175670
STARLINK-3708           
1 52111U 22029Z   25134.87260537 -.00001193  00000+0 -56879-4 0  9992
2 52111  53.2187 340.5608 0001328  97.6187 262.4956 15.08841603175672
STARLINK-3734           
1 52112U 22029AA  25134.94620555 -.00000473  00000+0 -11623-4 0  9999
2 52112  53.2184 340.2303 0000912 106.2983 253.8109 15.08845076175681
STARLINK-3736           
1 52113U 22029AB  25134.86524546  .00000293  00000+0  36498-4 0  9999
2 52113  53.2187 340.5943 0001412  98.0974 262.0178 15.08837837175675
STARLINK-3737           
1 52114U 22029AC  25134.87630484 -.00001001  00000+0 -44790-4 0  9994
2 52114  53.2198 340.5456 0001641  98.9550 261.1628 15.08829339175678
STARLINK-3685           
1 52115U 22029AD  25134.99039536 -.00004809  00000+0 -28454-3 0  9996
2 52115  53.2186 340.0339 0001023  70.9743 289.1360 15.08809213175693
STARLINK-3735           
1 52116U 22029AE  25134.93516974  .00001452  00000+0  10926-3 0  9991
2 52116  53.2190 340.2814 0001308  95.8060 264.3081 15.08847622175683
STARLINK-3738           
1 52117U 22029AF  25134.98300366  .00000628  00000+0  57532-4 0  9992
2 52117  53.2182 340.0645 0001346  91.7084 268.4063 15.08839674175704
STARLINK-3743           
1 52118U 22029AG  25134.86156373  .00000385  00000+0  42304-4 0  9998
2 52118  53.2181 340.6093 0001259  93.6415 266.4721 15.08837724175678
STARLINK-3558           
1 52119U 22029AH  25134.97564413 -.00000332  00000+0 -27727-5 0  9996
2 52119  53.2189 340.0985 0001427  96.2920 263.8235 15.08840778175694
STARLINK-3534           
1 52120U 22029AJ  25134.98669028  .00003337  00000+0  22765-3 0  9998
2 52120  53.2186 340.0484 0001657  82.3038 277.8142 15.08842332175700
STARLINK-3678           
1 52121U 22029AK  25134.95816292  .00000774  00000+0  66736-4 0  9992
2 52121  53.2188 330.1771 0001425 108.8324 251.2822 15.08840561175823
STARLINK-3726           
1 52122U 22029AL  25134.97932342  .00000005  00000+0  18397-4 0  9997
2 52122  53.2179 340.0827 0001302  86.1288 273.9853 15.08840554175699
STARLINK-3725           
1 52123U 22029AM  25134.86710248 -.00000261  00000+0  17074-5 0  9992
2 52123  53.2193 330.4102 0001418  83.8832 276.2321 15.08839221175822
STARLINK-3727           
1 52125U 22029AP  25134.94711637  .00000328  00000+0  38695-4 0  9990
2 52125  53.2181 330.2252 0001298  94.5051 265.6089 15.08845842175833
STARLINK-3732           
1 52126U 22029AQ  25134.95446461  .00002697  00000+0  18739-3 0  9999
2 52126  53.2182 330.1938 0001388  95.6489 264.4661 15.08857718175829
STARLINK-3715           
1 52127U 22029AR  25135.53962309 -.00001505  00000+0 -76510-4 0  9990
2 52127  53.2184 327.5682 0001362  83.7484 276.3663 15.08820827175918
STARLINK-3661           
1 52129U 22029AT  25135.53224611 -.00000384  00000+0 -60278-5 0  9998
2 52129  53.2177 327.6012 0001288  89.4423 270.6717 15.08839949175926
STARLINK-3711           
1 52131U 22029AV  25135.52856399  .00000211  00000+0  31316-4 0  9991
2 52131  53.2182 327.6185 0001143  95.0494 265.0629 15.08841222175924
STARLINK-3718           
1 52132U 22029AW  25134.80728286 -.00000065  00000+0  14033-4 0  9990
2 52132  53.2184 330.8559 0001335  88.9858 271.1287 15.08842190175817
STARLINK-3707           
1 52133U 22029AX  25134.85880194  .00000400  00000+0  43197-4 0  9998
2 52133  53.2189 330.6239 0001315  86.1750 273.9393 15.08844077175820
STARLINK-3721           
1 52134U 22029AY  25135.52488482  .00000393  00000+0  42788-4 0  9994
2 52134  53.2183 327.6343 0001359  87.1490 272.9658 15.08839607175924
STARLINK-3729           
1 52135U 22029AZ  25134.98120606  .00000068  00000+0  22341-4 0  9997
2 52135  53.2191 330.0840 0001363  92.2217 267.8931 15.08836422175843
STARLINK-3720           
1 52136U 22029BA  25134.92140441 -.00004598  00000+0 -27124-3 0  9998
2 52136  53.2184 330.3431 0001382  87.5175 272.5975 15.08803472175835
STARLINK-3733           
1 52137U 22029BB  25134.77784491 -.00003067  00000+0 -17469-3 0  9992
2 52137  53.2171 330.9877 0001232  89.9187 270.1946 15.08837922175812
STARLINK-3723           
1 52138U 22029BC  25135.51384790  .00000412  00000+0  43979-4 0  9999
2 52138  53.2194 327.6836 0001306  93.7134 266.4007 15.08837007175925
STARLINK-3730           
1 52139U 22029BD  25134.83212257  .00001364  00000+0  10374-3 0  9991
2 52139  53.2181 340.7452 0001290  87.7617 272.3523 15.08845872175673
STARLINK-3682           
1 52140U 22029BE  25134.97287955 -.00001065  00000+0 -48826-4 0  9999
2 52140  53.2182 330.1107 0001446  99.4538 260.6618 15.08834359175843
STARLINK-3761           
1 52262U 22041B   25135.03543860 -.00000044  00000+0  15357-4 0  9994
2 52262  53.2191   9.7821 0001502  82.9580 277.1583 15.08840042170493
STARLINK-3786           
1 52263U 22041C   25134.97288597  .00000990  00000+0  80312-4 0  9992
2 52263  53.2185  10.1113 0001403  83.8480 276.2672 15.08840994169264
STARLINK-3795           
1 52264U 22041D   25135.03176624  .00000837  00000+0  70702-4 0  9990
2 52264  53.2196   9.8469 0001564  88.2691 271.8480 15.08838460169271
STARLINK-3740           
1 52265U 22041E   25135.09432614  .00000627  00000+0  57511-4 0  9991
2 52265  53.2192   9.5659 0001595  96.7657 263.3516 15.08835751169283
STARLINK-3739           
1 52266U 22041F   25135.02440016  .00000491  00000+0  48933-4 0  9997
2 52266  53.2185   9.8815 0001359  93.2915 266.8233 15.08845342169270
STARLINK-3748           
1 52267U 22041G   25135.02072745  .00001001  00000+0  80971-4 0  9994
2 52267  53.2197   9.9055 0001292  86.6762 273.4378 15.08834318169278
STARLINK-3746           
1 52268U 22041H   25135.20103111  .00000569  00000+0  53832-4 0  9991
2 52268  53.2188   9.0103 0001219  92.1880 267.9251 15.08840909169301
STARLINK-3791           
1 52269U 22041J   25135.08327986  .00000645  00000+0  58637-4 0  9999
2 52269  53.2187   9.6166 0001369  93.3722 266.7427 15.08843264169286
